OBJECT_NAME,OBJECT_ID,EPOCH,MEAN_MOTION,ECCENTRICITY,INCLINATION,RA_OF_ASC_NODE,ARG_OF_PERICENTER,MEAN_ANOMALY,EPHEMERIS_TYPE,CLASSIFICATION_TYPE,NORAD_CAT_ID,ELEMENT_SET_NO,REV_AT_EPOCH,BSTAR,MEAN_MOTION_DOT,MEAN_MOTION_DDOT
FLOCK 4BE-7,2024-149P,2026-07-21T12:05:06.834048,15.41663425,.00044923,97.3742,285.8973,133.2399,226.9224,0,U,60481,999,10753,.57775852E-3,.2432E-3,0
FLOCK 4BE-26,2024-149S,2026-07-21T04:34:14.390112,15.79635721,.00038243,97.3592,290.1916,208.4431,151.6629,0,U,60484,999,10781,.117847E-2,.219362E-2,0
TOMORROW-S2,2024-149T,2026-07-21T12:01:32.346048,15.33201330,.00042861,97.3805,283.3960,133.6091,226.5508,0,U,60485,999,10734,.21261231E-3,.6743E-4,0
FLOCK 4BE-36,2024-149U,2026-07-21T05:22:38.308800,15.43671035,.00051445,97.3730,287.0826,136.2238,223.9418,0,U,60486,999,10760,.29820533E-3,.13365E-3,0
FLOCK 4BE-25,2024-149V,2026-07-21T05:12:39.594816,15.39648933,.00040218,97.3782,285.6170,129.9257,230.2343,0,U,60487,999,10747,.26803192E-3,.10492E-3,0
FLOCK 4BE-31,2024-149W,2026-07-21T11:31:57.602784,15.45324516,.00041204,97.3785,288.3055,135.0458,225.1125,0,U,60488,999,10767,.40518871E-3,.19252E-3,0
FLOCK 4BE-20,2024-149X,2026-07-21T04:43:51.808224,15.38907484,.00054067,97.3681,284.3903,136.6218,223.5453,0,U,60489,999,10744,.24188319E-3,.9234E-4,0
FLOCK 4BE-23,2024-149Y,2026-07-21T04:43:19.439328,15.38466373,.00050602,97.3765,284.7833,140.5506,219.6109,0,U,60490,999,10742,.27665307E-3,.10422E-3,0
FLOCK 4BE-15,2024-149Z,2026-07-21T05:07:28.325856,15.65959077,.00047055,97.3652,289.0203,180.1969,179.9290,0,U,60491,999,10774,.9812276E-3,.100912E-2,0
FLOCK 4BE-17,2024-149AA,2026-07-21T04:45:11.177856,15.40690773,.0004662,97.3758,285.8565,131.6807,228.4839,0,U,60492,999,10749,.31223477E-3,.12669E-3,0
NUSAT-50 (NANCY ROMAN),2024-149AB,2026-07-21T12:01:33.658464,15.30390285,.00048365,97.3771,283.5290,87.2808,272.8987,0,U,60493,999,10737,.28388936E-3,.8271E-4,0
FLOCK 4BE-22,2024-149AC,2026-07-21T11:21:09.177696,15.42226262,.00050066,97.3717,286.3814,138.1684,221.9946,0,U,60494,999,10758,.72588485E-3,.31185E-3,0
FLOCK 4BE-34,2024-149AD,2026-07-21T03:59:37.314240,15.42068261,.00052758,97.3767,286.9148,145.4969,214.6621,0,U,60495,999,10756,.29133974E-3,.1237E-3,0
TYCHE,2024-149AE,2026-07-21T11:57:55.029312,15.25810398,.00035339,97.3740,279.8511,150.6763,209.4675,0,U,60496,999,10713,.14016955E-3,.3511E-4,0
FLOCK 4BE-32,2024-149AF,2026-07-21T12:00:21.345120,15.43236366,.00053463,97.3704,286.8239,141.8048,218.3579,0,U,60497,999,10762,.40049703E-3,.17729E-3,0
NUSAT-48 (HENRIETTA LEAVITT),2024-149AG,2026-07-21T03:55:16.363776,15.30206211,.00057606,97.3891,283.4962,144.1271,216.0357,0,U,60498,999,10733,.22871295E-3,.661E-4,0
FLOCK 4BE-30,2024-149AH,2026-07-21T05:18:43.903872,15.66690293,.0006549,97.3735,289.1354,202.3402,157.7574,0,U,60499,999,10708,.17715738E-2,.189798E-2,0
NUSAT-49 (KLARA DAN VON NEUMANN),2024-149AJ,2026-07-21T11:15:03.157920,15.29847650,.00032494,97.3772,283.5228,145.3637,214.7816,0,U,60500,999,10737,.79184532E-4,.2213E-4,0
FLOCK 4BE-11,2024-149AK,2026-07-21T11:26:56.372640,15.44024709,.00053664,97.3682,287.0627,141.1432,219.0203,0,U,60501,999,10764,.3413966E-3,.15503E-3,0
YAM-7,2024-149AN,2026-07-21T05:12:13.873536,15.32233403,.00042362,97.3769,282.3362,151.3510,208.7965,0,U,60504,999,10726,.17601387E-3,.54E-4,0
FLOCK 4BE-24,2024-149AP,2026-07-21T04:48:51.594624,15.44255936,.00054841,97.3698,287.0547,152.8176,207.3360,0,U,60505,999,10761,.35508516E-3,.16256E-3,0
LUR-1,2024-149AQ,2026-07-21T04:19:22.419840,15.30495329,.00045667,97.3722,280.7691,163.0358,197.1036,0,U,60506,999,10717,.17600838E-3,.5114E-4,0
TANAGER-1,2024-149AR,2026-07-21T12:00:58.077216,15.43898611,.00027985,97.2310,296.5952,128.1626,231.9875,0,U,60507,999,10833,.7381813E-5,.251E-5,0
EAGLEEYE,2024-149AS,2026-07-21T13:19:03.828288,15.78051583,.00043949,97.3698,297.9727,174.3822,185.7495,0,U,60508,999,10834,.92083149E-3,.158546E-2,0
FLOCK 4BE-29,2024-149AT,2026-07-21T04:27:39.085920,15.45808063,.00041243,97.3794,288.6041,162.0588,198.0808,0,U,60509,999,10766,.7310765E-3,.3546E-3,0
FLOCK 4BE-2,2024-149AV,2026-07-21T05:42:14.790816,15.56436152,.00054511,97.3817,290.6003,157.2583,202.8914,0,U,60511,999,10779,.81280085E-3,.57696E-3,0
FLOCK 4BE-13,2024-149AW,2026-07-21T05:13:09.599808,15.42722739,.00054571,97.3708,287.0020,138.5749,221.5913,0,U,60512,999,10761,.2500379E-3,.10838E-3,0
FLOCK 4BE-27,2024-149AX,2026-07-21T03:55:42.682944,15.34984568,.00045473,97.3813,284.0426,163.0635,197.0761,0,U,60513,999,10735,.21457983E-3,.7203E-4,0
FLOCK 4BE-9,2024-149AY,2026-07-21T11:58:50.343456,15.41759367,.00041363,97.3781,287.1257,155.3179,204.8267,0,U,60514,999,10760,.40016829E-3,.16855E-3,0
