{"epoch":1784710044,"count":18256,"objects":[{"id":"60481","name":"FLOCK 4BE 7","type":"PAYLOAD","l1":"1 60481U 24149P   26202.50355132  .00024320  00000-0  57776-3 0  9991","l2":"2 60481  97.3742 285.8973 0004492 133.2399 226.9224 15.41663425107534"},{"id":"60484","name":"FLOCK 4BE 26","type":"PAYLOAD","l1":"1 60484U 24149S   26202.19044433  .00219362  00000-0  11785-2 0  9999","l2":"2 60484  97.3592 290.1916 0003824 208.4431 151.6629 15.79635721107819"},{"id":"60485","name":"TOMORROW-S2","type":"PAYLOAD","l1":"1 60485U 24149T   26202.50106882  .00006743  00000-0  21261-3 0  9990","l2":"2 60485  97.3805 283.3960 0004286 133.6091 226.5508 15.33201330107345"},{"id":"60486","name":"FLOCK 4BE 36","type":"PAYLOAD","l1":"1 60486U 24149U   26202.22405450  .00013365  00000-0  29821-3 0  9991","l2":"2 60486  97.3730 287.0826 0005145 136.2238 223.9418 15.43671035107606"},{"id":"60487","name":"FLOCK 4BE 25","type":"PAYLOAD","l1":"1 60487U 24149V   26202.21712494  .00010492  00000-0  26803-3 0  9995","l2":"2 60487  97.3782 285.6170 0004022 129.9257 230.2343 15.39648933107472"},{"id":"60488","name":"FLOCK 4BE 31","type":"PAYLOAD","l1":"1 60488U 24149W   26202.48052781  .00019252  00000-0  40519-3 0  9994","l2":"2 60488  97.3785 288.3055 0004120 135.0458 225.1125 15.45324516107676"},{"id":"60489","name":"FLOCK 4BE 20","type":"PAYLOAD","l1":"1 60489U 24149X   26202.19712741  .00009234  00000-0  24188-3 0  9995","l2":"2 60489  97.3681 284.3903 0005407 136.6218 223.5453 15.38907484107444"},{"id":"60490","name":"FLOCK 4BE 23","type":"PAYLOAD","l1":"1 60490U 24149Y   26202.19675277  .00010422  00000-0  27665-3 0  9993","l2":"2 60490  97.3765 284.7833 0005060 140.5506 219.6109 15.38466373107423"},{"id":"60491","name":"FLOCK 4BE 15","type":"PAYLOAD","l1":"1 60491U 24149Z   26202.21352229  .00100912  00000-0  98123-3 0  9997","l2":"2 60491  97.3652 289.0203 0004705 180.1969 179.9290 15.65959077107748"},{"id":"60492","name":"FLOCK 4BE 17","type":"PAYLOAD","l1":"1 60492U 24149AA  26202.19804604  .00012669  00000-0  31223-3 0  9993","l2":"2 60492  97.3758 285.8565 0004662 131.6807 228.4839 15.40690773107494"},{"id":"60493","name":"NUSAT-50 (NANCY ROMAN)","type":"PAYLOAD","l1":"1 60493U 24149AB  26202.50108401  .00008271  00000-0  28389-3 0  9994","l2":"2 60493  97.3771 283.5290 0004837  87.2808 272.8987 15.30390285107379"},{"id":"60494","name":"FLOCK 4BE 22","type":"PAYLOAD","l1":"1 60494U 24149AC  26202.47302289  .00031185  00000-0  72588-3 0  9991","l2":"2 60494  97.3717 286.3814 0005007 138.1684 221.9946 15.42226262107580"},{"id":"60495","name":"FLOCK 4BE 34","type":"PAYLOAD","l1":"1 60495U 24149AD  26202.16640410  .00012370  00000-0  29134-3 0  9993","l2":"2 60495  97.3767 286.9148 0005276 145.4969 214.6621 15.42068261107567"},{"id":"60496","name":"TYCHE","type":"PAYLOAD","l1":"1 60496U 24149AE  26202.49855358  .00003511  00000-0  14017-3 0  9990","l2":"2 60496  97.3740 279.8511 0003534 150.6763 209.4675 15.25810398107130"},{"id":"60497","name":"FLOCK 4BE 32","type":"PAYLOAD","l1":"1 60497U 24149AF  26202.50024705  .00017729  00000-0  40050-3 0  9999","l2":"2 60497  97.3704 286.8239 0005346 141.8048 218.3579 15.43236366107620"},{"id":"60498","name":"NUSAT-48 (H. LEAVITT)","type":"PAYLOAD","l1":"1 60498U 24149AG  26202.16338384  .00006610  00000-0  22871-3 0  9991","l2":"2 60498  97.3891 283.4962 0005761 144.1271 216.0357 15.30206211107338"},{"id":"60499","name":"FLOCK 4BE 30","type":"PAYLOAD","l1":"1 60499U 24149AH  26202.22134148  .00189798  00000-0  17716-2 0  9991","l2":"2 60499  97.3735 289.1354 0006549 202.3402 157.7574 15.66690293107082"},{"id":"60500","name":"NUSAT-49(K.VON NEUMANN)","type":"PAYLOAD","l1":"1 60500U 24149AJ  26202.46878655  .00002213  00000-0  79185-4 0  9994","l2":"2 60500  97.3772 283.5228 0003249 145.3637 214.7816 15.29847650107379"},{"id":"60501","name":"FLOCK 4BE 11","type":"PAYLOAD","l1":"1 60501U 24149AK  26202.47704135  .00015503  00000-0  34140-3 0  9994","l2":"2 60501  97.3682 287.0627 0005366 141.1432 219.0203 15.44024709107648"},{"id":"60504","name":"YAM-7","type":"PAYLOAD","l1":"1 60504U 24149AN  26202.21682724  .00005400  00000-0  17601-3 0  9996","l2":"2 60504  97.3769 282.3362 0004236 151.3510 208.7965 15.32233403107264"},{"id":"60505","name":"FLOCK 4BE 24","type":"PAYLOAD","l1":"1 60505U 24149AP  26202.20059716  .00016256  00000-0  35509-3 0  9993","l2":"2 60505  97.3698 287.0547 0005484 152.8176 207.3360 15.44255936107614"},{"id":"60506","name":"LUR-1","type":"PAYLOAD","l1":"1 60506U 24149AQ  26202.18012060  .00005114  00000-0  17601-3 0  9996","l2":"2 60506  97.3722 280.7691 0004567 163.0358 197.1036 15.30495329107174"},{"id":"60507","name":"TANAGER-1 4001","type":"PAYLOAD","l1":"1 60507U 24149AR  26202.50067219  .00000251  00000-0  73818-5 0  9990","l2":"2 60507  97.2310 296.5952 0002798 128.1626 231.9875 15.43898611108338"},{"id":"60508","name":"EAGLEEYE","type":"PAYLOAD","l1":"1 60508U 24149AS  26202.55490542  .00158546  00000-0  92083-3 0  9999","l2":"2 60508  97.3698 297.9727 0004395 174.3822 185.7495 15.78051583108342"},{"id":"60509","name":"FLOCK 4BE 29","type":"PAYLOAD","l1":"1 60509U 24149AT  26202.18586905  .00035460  00000-0  73108-3 0  9994","l2":"2 60509  97.3794 288.6041 0004124 162.0588 198.0808 15.45808063107665"},{"id":"60511","name":"FLOCK 4BE 2","type":"PAYLOAD","l1":"1 60511U 24149AV  26202.23767119  .00057696  00000-0  81280-3 0  9996","l2":"2 60511  97.3817 290.6003 0005451 157.2583 202.8914 15.56436152107794"},{"id":"60512","name":"FLOCK 4BE 13","type":"PAYLOAD","l1":"1 60512U 24149AW  26202.21747222  .00010838  00000-0  25004-3 0  9997","l2":"2 60512  97.3708 287.0020 0005457 138.5749 221.5913 15.42722739107617"},{"id":"60513","name":"FLOCK 4BE 27","type":"PAYLOAD","l1":"1 60513U 24149AX  26202.16368846  .00007203  00000-0  21458-3 0  9994","l2":"2 60513  97.3813 284.0426 0004547 163.0635 197.0761 15.34984568107358"},{"id":"60514","name":"FLOCK 4BE 9","type":"PAYLOAD","l1":"1 60514U 24149AY  26202.49919379  .00016855  00000-0  40017-3 0  9999","l2":"2 60514  97.3781 287.1257 0004136 155.3179 204.8267 15.41759367107601"}]}